{"type": "FeatureCollection", "features": [ {"type": "Feature", "properties": {"norad_id": 34079, "name": "IRIDIUM 33 DEB", "group": "iridium-33-debris", "lat": 76.32320186469077, "lon": 18.02891067133664, "alt_km": 611.3013211284924, "timestamp": "2025-12-25T07:41:10.108072+00:00", "meta": {"OBJECT_NAME": "IRIDIUM 33 DEB", "OBJECT_ID": "1997-051CN", "EPOCH": "2025-12-24T12:30:12.875904", "MEAN_MOTION": 14.8383167, "ECCENTRICITY": 0.00041323, "INCLINATION": 86.3775, "RA_OF_ASC_NODE": 3.3024, "ARG_OF_PERICENTER": 324.129, "MEAN_ANOMALY": 165.8866, "EPHEMERIS_TYPE": 0, "CLASSIFICATION_TYPE": "U", "NORAD_CAT_ID": 34079, "ELEMENT_SET_NO": 999, "REV_AT_EPOCH": 89152, "BSTAR": 0.0020259047, "MEAN_MOTION_DOT": 0.00016842, "MEAN_MOTION_DDOT": 0}, "tle": {"line1": "1 34079U 97051CN  25358.52098236  .00016842  00000+0  20259-2 0  9993", "line2": "2 34079  86.3775   3.3024 0004132 324.1290 165.8866 14.83831670891520"}}, "geometry": {"type": "Point", "coordinates": [18.02891067133664, 76.32320186469077]}}, {"type": "Feature", "properties": {"norad_id": 34088, "name": "IRIDIUM 33 DEB", "group": "iridium-33-debris", "lat": 11.13235528627591, "lon": -155.7728953942996, "alt_km": 589.2998764881986, "timestamp": "2025-12-25T07:41:10.108082+00:00", "meta": {"OBJECT_NAME": "IRIDIUM 33 DEB", "OBJECT_ID": "1997-051CX", "EPOCH": "2025-12-24T20:27:16.689600", "MEAN_MOTION": 14.91914263, "ECCENTRICITY": 0.00070087, "INCLINATION": 86.384, "RA_OF_ASC_NODE": 25.1553, "ARG_OF_PERICENTER": 138.8061, "MEAN_ANOMALY": 38.0669, "EPHEMERIS_TYPE": 0, "CLASSIFICATION_TYPE": "U", "NORAD_CAT_ID": 34088, "ELEMENT_SET_NO": 999, "REV_AT_EPOCH": 88922, "BSTAR": 0.0024721426, "MEAN_MOTION_DOT": 0.00025093, "MEAN_MOTION_DDOT": 0}, "tle": {"line1": "1 34088U 97051CX  25358.85227650  .00025093  00000+0  24721-2 0  9999", "line2": "2 34088  86.3840  25.1553 0007008 138.8061  38.0669 14.91914263889228"}}, "geometry": {"type": "Point", "coordinates": [-155.7728953942996, 11.13235528627591]}}, {"type": "Feature", "properties": {"norad_id": 34091, "name": "IRIDIUM 33 DEB", "group": "iridium-33-debris", "lat": -69.73346933353594, "lon": 51.087884425766475, "alt_km": 610.1676033150461, "timestamp": "2025-12-25T07:41:10.108093+00:00", "meta": {"OBJECT_NAME": "IRIDIUM 33 DEB", "OBJECT_ID": "1997-051DA", "EPOCH": "2025-12-24T15:48:13.781376", "MEAN_MOTION": 14.82675579, "ECCENTRICITY": 0.00342697, "INCLINATION": 86.3409, "RA_OF_ASC_NODE": 61.3716, "ARG_OF_PERICENTER": 250.5713, "MEAN_ANOMALY": 109.1805, "EPHEMERIS_TYPE": 0, "CLASSIFICATION_TYPE": "U", "NORAD_CAT_ID": 34091, "ELEMENT_SET_NO": 999, "REV_AT_EPOCH": 88043, "BSTAR": 0.0050215887, "MEAN_MOTION_DOT": 0.00041111, "MEAN_MOTION_DDOT": 0}, "tle": {"line1": "1 34091U 97051DA  25358.65849284  .00041111  00000+0  50216-2 0  9991", "line2": "2 34091  86.3409  61.3716 0034269 250.5713 109.1805 14.82675579880431"}}, "geometry": {"type": "Point", "coordinates": [51.087884425766475, -69.73346933353594]}}, {"type": "Feature", "properties": {"norad_id": 34097, "name": "IRIDIUM 33 DEB", "group": "iridium-33-debris", "lat": -11.761147187632565, "lon": 176.6468556030234, "alt_km": 816.5929427344936, "timestamp": "2025-12-25T07:41:10.108103+00:00", "meta": {"OBJECT_NAME": "IRIDIUM 33 DEB", "OBJECT_ID": "1997-051DG", "EPOCH": "2025-12-24T00:39:48.601440", "MEAN_MOTION": 14.34864137, "ECCENTRICITY": 0.00814826, "INCLINATION": 86.2003, "RA_OF_ASC_NODE": 356.4244, "ARG_OF_PERICENTER": 325.2171, "MEAN_ANOMALY": 34.3712, "EPHEMERIS_TYPE": 0, "CLASSIFICATION_TYPE": "U", "NORAD_CAT_ID": 34097, "ELEMENT_SET_NO": 999, "REV_AT_EPOCH": 87281, "BSTAR": 0.0015312665, "MEAN_MOTION_DOT": 4.532e-05, "MEAN_MOTION_DDOT": 0}, "tle": {"line1": "1 34097U 97051DG  25358.02764585  .00004532  00000+0  15313-2 0  9993", "line2": "2 34097  86.2003 356.4244 0081482 325.2171  34.3712 14.34864137872813"}}, "geometry": {"type": "Point", "coordinates": [176.6468556030234, -11.761147187632565]}}, {"type": "Feature", "properties": {"norad_id": 34145, "name": "IRIDIUM 33 DEB", "group": "iridium-33-debris", "lat": 80.60973412262432, "lon": -9.463422409174287, "alt_km": 708.2194682303034, "timestamp": "2025-12-25T07:41:10.108114+00:00", "meta": {"OBJECT_NAME": "IRIDIUM 33 DEB", "OBJECT_ID": "1997-051DY", "EPOCH": "2025-12-23T08:41:39.975936", "MEAN_MOTION": 14.42361739, "ECCENTRICITY": 0.00555944, "INCLINATION": 86.2126, "RA_OF_ASC_NODE": 327.7951, "ARG_OF_PERICENTER": 60.0799, "MEAN_ANOMALY": 300.5906, "EPHEMERIS_TYPE": 0, "CLASSIFICATION_TYPE": "U", "NORAD_CAT_ID": 34145, "ELEMENT_SET_NO": 999, "REV_AT_EPOCH": 87791, "BSTAR": 0.0012419771, "MEAN_MOTION_DOT": 4.2e-05, "MEAN_MOTION_DDOT": 0}, "tle": {"line1": "1 34145U 97051DY  25357.36226824  .00004200  00000+0  12420-2 0  9990", "line2": "2 34145  86.2126 327.7951 0055594  60.0799 300.5906 14.42361739877912"}}, "geometry": {"type": "Point", "coordinates": [-9.463422409174287, 80.60973412262432]}}, {"type": "Feature", "properties": {"norad_id": 34146, "name": "IRIDIUM 33 DEB", "group": "iridium-33-debris", "lat": 24.007904565771494, "lon": -14.099203126486852, "alt_km": 745.1770683046016, "timestamp": "2025-12-25T07:41:10.108124+00:00", "meta": {"OBJECT_NAME": "IRIDIUM 33 DEB", "OBJECT_ID": "1997-051DZ", "EPOCH": "2025-12-24T21:44:23.578080", "MEAN_MOTION": 14.49125378, "ECCENTRICITY": 0.00268554, "INCLINATION": 86.2841, "RA_OF_ASC_NODE": 344.4251, "ARG_OF_PERICENTER": 179.6766, "MEAN_ANOMALY": 203.9999, "EPHEMERIS_TYPE": 0, "CLASSIFICATION_TYPE": "U", "NORAD_CAT_ID": 34146, "ELEMENT_SET_NO": 999, "REV_AT_EPOCH": 88283, "BSTAR": 0.00094692404, "MEAN_MOTION_DOT": 3.635e-05, "MEAN_MOTION_DDOT": 0}, "tle": {"line1": "1 34146U 97051DZ  25358.90582845  .00003635  00000+0  94692-3 0  9993", "line2": "2 34146  86.2841 344.4251 0026855 179.6766 203.9999 14.49125378882834"}}, "geometry": {"type": "Point", "coordinates": [-14.099203126486852, 24.007904565771494]}}, {"type": "Feature", "properties": {"norad_id": 34159, "name": "IRIDIUM 33 DEB", "group": "iridium-33-debris", "lat": -19.119798044374903, "lon": 41.60794112296399, "alt_km": 770.9555788923526, "timestamp": "2025-12-25T07:41:10.108134+00:00", "meta": {"OBJECT_NAME": "IRIDIUM 33 DEB", "OBJECT_ID": "1997-051EN", "EPOCH": "2025-12-24T20:05:20.636160", "MEAN_MOTION": 14.38522159, "ECCENTRICITY": 0.00262083, "INCLINATION": 86.3491, "RA_OF_ASC_NODE": 43.0823, "ARG_OF_PERICENTER": 245.0381, "MEAN_ANOMALY": 114.8094, "EPHEMERIS_TYPE": 0, "CLASSIFICATION_TYPE": "U", "NORAD_CAT_ID": 34159, "ELEMENT_SET_NO": 999, "REV_AT_EPOCH": 88133, "BSTAR": 0.00037252524, "MEAN_MOTION_DOT": 1.162e-05, "MEAN_MOTION_DDOT": 0}, "tle": {"line1": "1 34159U 97051EN  25358.83704440  .00001162  00000+0  37253-3 0  9999", "line2": "2 34159  86.3491  43.0823 0026208 245.0381 114.8094 14.38522159881336"}}, "geometry": {"type": "Point", "coordinates": [41.60794112296399, -19.119798044374903]}}, {"type": "Feature", "properties": {"norad_id": 34350, "name": "IRIDIUM 33 DEB", "group": "iridium-33-debris", "lat": -39.0579089889418, "lon": -5.639903057412153, "alt_km": 759.1102210323234, "timestamp": "2025-12-25T07:41:10.108145+00:00", "meta": {"OBJECT_NAME": "IRIDIUM 33 DEB", "OBJECT_ID": "1997-051ES", "EPOCH": "2025-12-24T00:32:43.402848", "MEAN_MOTION": 14.45412169, "ECCENTRICITY": 0.00234875, "INCLINATION": 86.3272, "RA_OF_ASC_NODE": 357.9107, "ARG_OF_PERICENTER": 100.6701, "MEAN_ANOMALY": 313.0828, "EPHEMERIS_TYPE": 0, "CLASSIFICATION_TYPE": "U", "NORAD_CAT_ID": 34350, "ELEMENT_SET_NO": 999, "REV_AT_EPOCH": 88456, "BSTAR": 0.00031816232, "MEAN_MOTION_DOT": 1.143e-05, "MEAN_MOTION_DDOT": 0}, "tle": {"line1": "1 34350U 97051ES  25358.02272457  .00001143  00000+0  31816-3 0  9999", "line2": "2 34350  86.3272 357.9107 0023487 100.6701 313.0828 14.45412169884569"}}, "geometry": {"type": "Point", "coordinates": [-5.639903057412153, -39.0579089889418]}}, {"type": "Feature", "properties": {"norad_id": 34366, "name": "IRIDIUM 33 DEB", "group": "iridium-33-debris", "lat": -37.4637613813194, "lon": 41.051272510381786, "alt_km": 730.7115463522168, "timestamp": "2025-12-25T07:41:10.108156+00:00", "meta": {"OBJECT_NAME": "IRIDIUM 33 DEB", "OBJECT_ID": "1997-051FJ", "EPOCH": "2025-12-24T14:23:48.658272", "MEAN_MOTION": 14.54144836, "ECCENTRICITY": 0.0023037, "INCLINATION": 86.3684, "RA_OF_ASC_NODE": 44.1543, "ARG_OF_PERICENTER": 102.8628, "MEAN_ANOMALY": 51.1135, "EPHEMERIS_TYPE": 0, "CLASSIFICATION_TYPE": "U", "NORAD_CAT_ID": 34366, "ELEMENT_SET_NO": 999, "REV_AT_EPOCH": 88354, "BSTAR": 0.00090360527, "MEAN_MOTION_DOT": 3.853e-05, "MEAN_MOTION_DDOT": 0}, "tle": {"line1": "1 34366U 97051FJ  25358.59986873  .00003853  00000+0  90361-3 0  9992", "line2": "2 34366  86.3684  44.1543 0023037 102.8628  51.1135 14.54144836883546"}}, "geometry": {"type": "Point", "coordinates": [41.051272510381786, -37.4637613813194]}}, {"type": "Feature", "properties": {"norad_id": 34375, "name": "IRIDIUM 33 DEB", "group": "iridium-33-debris", "lat": 44.17727798053231, "lon": -178.89441833431948, "alt_km": 773.3516577516393, "timestamp": "2025-12-25T07:41:10.108166+00:00", "meta": {"OBJECT_NAME": "IRIDIUM 33 DEB", "OBJECT_ID": "1997-051FT", "EPOCH": "2025-12-24T13:09:42.393312", "MEAN_MOTION": 14.18013041, "ECCENTRICITY": 0.01036939, "INCLINATION": 86.4324, "RA_OF_ASC_NODE": 177.9413, "ARG_OF_PERICENTER": 89.8064, "MEAN_ANOMALY": 337.6478, "EPHEMERIS_TYPE": 0, "CLASSIFICATION_TYPE": "U", "NORAD_CAT_ID": 34375, "ELEMENT_SET_NO": 999, "REV_AT_EPOCH": 86879, "BSTAR": 0.00038925605, "MEAN_MOTION_DOT": 8.6e-06, "MEAN_MOTION_DDOT": 0}, "tle": {"line1": "1 34375U 97051FT  25358.54840733  .00000860  00000+0  38926-3 0  9995", "line2": "2 34375  86.4324 177.9413 0103693  89.8064 337.6478 14.18013041868799"}}, "geometry": {"type": "Point", "coordinates": [-178.89441833431948, 44.17727798053231]}}]}